[{"OBJECT_NAME":"TOMORROW-S1","OBJECT_ID":"2024-149M","EPOCH":"2026-03-09T17:23:34.533600","MEAN_MOTION":15.31198363,"ECCENTRICITY":0.00018188,"INCLINATION":97.3791,"RA_OF_ASC_NODE":149.6044,"ARG_OF_PERICENTER":207.204,"MEAN_ANOMALY":152.9106,"EPHEMERIS_TYPE":0,"CLASSIFICATION_TYPE":"U","NORAD_CAT_ID":60479,"ELEMENT_SET_NO":999,"REV_AT_EPOCH":8686,"BSTAR":0.0002885603,"MEAN_MOTION_DOT":8.62e-5,"MEAN_MOTION_DDOT":0},{"OBJECT_NAME":"STARLINK-34760","OBJECT_ID":"2025-190J","EPOCH":"2026-03-09T14:17:01.166496","MEAN_MOTION":15.30189445,"ECCENTRICITY":0.0001226,"INCLINATION":53.1601,"RA_OF_ASC_NODE":168.4095,"ARG_OF_PERICENTER":65.5219,"MEAN_ANOMALY":294.5909,"EPHEMERIS_TYPE":0,"CLASSIFICATION_TYPE":"U","NORAD_CAT_ID":65359,"ELEMENT_SET_NO":999,"REV_AT_EPOCH":2927,"BSTAR":0.00079774,"MEAN_MOTION_DOT":0.00023334,"MEAN_MOTION_DDOT":0}]
